NORAD_CAT_ID,OBJECT_NAME,OBJECT_TYPE,EPOCH,MEAN_MOTION,ECCENTRICITY,INCLINATION,RA_OF_ASC_NODE,ARG_OF_PERICENTER,MEAN_ANOMALY,BSTAR,MEAN_MOTION_DOT,MEAN_MOTION_DDOT,TLE_LINE0,TLE_LINE1,TLE_LINE2,SEMIMAJOR_AXIS,PERIOD,APOGEE,PERIGEE,DECAYED
53432.0,STARLINK-4557,PAYLOAD,2023-05-02 09:05:30,15.08843043,0.0001388,53.2149,102.9949,82.3795,277.7355,0.00015561,2.19e-05,0.0,0 STARLINK-4557,1 53432U 22097AW  23122.37883041  .00002190  00000-0  15561-3 0  9994,2 53432  53.2149 102.9949 0001388  82.3795 277.7355 15.08843043 41435,6917.871,95.437,540.696,538.776,0.0
53432.0,STARLINK-4557,PAYLOAD,2023-05-02 21:48:36,15.08839007,0.0001418,53.2149,100.6156,82.0323,278.083,9.2312e-05,1.181e-05,0.0,0 STARLINK-4557,1 53432U 22097AW  23122.90875268  .00001181  00000-0  92312-4 0  9994,2 53432  53.2149 100.6156 0001418  82.0323 278.0830 15.08839007 41514,6917.883,95.438,540.729,538.767,0.0
53432.0,STARLINK-4557,PAYLOAD,2023-05-03 07:20:54,15.08841985,0.000139,53.2151,98.8313,85.0199,275.0952,0.0001077,1.427e-05,0.0,0 STARLINK-4557,1 53432U 22097AW  23123.30619078  .00001427  00000-0  10770-3 0  9994,2 53432  53.2151  98.8313 0001390  85.0199 275.0952 15.08841985 41096,6917.874,95.437,540.701,538.778,0.0
53432.0,STARLINK-4557,PAYLOAD,2023-05-03 15:17:50,15.08841685,0.0001378,53.2151,97.3445,82.5549,277.5599,9.0533e-05,1.153e-05,0.0,0 STARLINK-4557,1 53432U 22097AW  23123.63739092  .00001153  00000-0  90533-4 0  9991,2 53432  53.2151  97.3445 0001378  82.5549 277.5599 15.08841685 41623,6917.875,95.437,540.694,538.787,0.0
53432.0,STARLINK-4557,PAYLOAD,2023-05-04 05:36:19,15.08837987,0.0001455,53.2155,94.6682,81.5156,278.6001,2.9541e-05,1.82e-06,0.0,0 STARLINK-4557,1 53432U 22097AW  23124.23355383  .00000182  00000-0  29541-4 0  9997,2 53432  53.2155  94.6682 0001455  81.5156 278.6001 15.08837987 41236,6917.887,95.438,540.758,538.745,0.0
53432.0,STARLINK-4557,PAYLOAD,2023-05-04 08:47:05,15.08840567,0.0001449,53.2163,94.0736,81.3492,278.7665,7.9212e-05,9.73e-06,0.0,0 STARLINK-4557,1 53432U 22097AW  23124.36603487  .00000973  00000-0  79212-4 0  9990,2 53432  53.2163  94.0736 0001449  81.3492 278.7665 15.08840567 41733,6917.879,95.438,540.746,538.741,0.0
53432.0,STARLINK-4557,PAYLOAD,2023-05-04 21:30:10,15.08842081,0.0001474,53.2161,91.6946,82.3404,277.7756,9.8105e-05,1.274e-05,0.0,0 STARLINK-4557,1 53432U 22097AW  23124.89595386  .00001274  00000-0  98105-4 0  9993,2 53432  53.2161  91.6946 0001474  82.3404 277.7756 15.08842081 41811,6917.874,95.437,540.759,538.719,0.0
53432.0,STARLINK-4557,PAYLOAD,2023-05-05 07:02:28,15.08854755,0.0001245,53.2153,89.9109,82.7447,277.3687,2.5335e-06,-2.48e-06,0.0,0 STARLINK-4557,1 53432U 22097AW  23125.29338518 -.00000248  00000-0  25335-5 0  9997,2 53432  53.2153  89.9109 0001245  82.7447 277.3687 15.08854755 41393,6917.835,95.437,540.562,538.839,0.0
53432.0,STARLINK-4557,PAYLOAD,2023-05-05 21:20:57,15.08835933,0.0001391,53.2161,87.2337,84.366,275.749,6.9022e-05,8.11e-06,0.0,0 STARLINK-4557,1 53432U 22097AW  23125.88955841  .00000811  00000-0  69022-4 0  9991,2 53432  53.2161  87.2337 0001391  84.3660 275.7490 15.08835933 41967,6917.893,95.438,540.72,538.796,0.0
53432.0,STARLINK-4557,PAYLOAD,2023-05-05 22:56:21,15.08835368,0.0001366,53.2159,86.9363,84.7567,275.3581,6.1703e-05,6.94e-06,0.0,0 STARLINK-4557,1 53432U 22097AW  23125.95579882  .00000694  00000-0  61703-4 0  9993,2 53432  53.2159  86.9363 0001366  84.7567 275.3581 15.08835368 41498,6917.895,95.438,540.705,538.815,0.0
53432.0,STARLINK-4557,PAYLOAD,2023-05-06 03:42:30,15.08839652,0.0001279,53.2157,86.0444,87.7182,272.3957,6.4177e-05,7.34e-06,0.0,0 STARLINK-4557,1 53432U 22097AW  23126.15451739  .00000734  00000-0  64177-4 0  9999,2 53432  53.2157  86.0444 0001279  87.7182 272.3957 15.08839652 42008,6917.881,95.438,540.631,538.862,0.0
53432.0,STARLINK-4557,PAYLOAD,2023-05-07 03:33:16,15.08860922,0.0001393,53.2155,81.5822,96.3733,263.7418,0.000272,4.046e-05,0.0,0 STARLINK-4557,1 53432U 22097AW  23127.14810414  .00004046  00000-0  27200-3 0  9993,2 53432  53.2155  81.5822 0001393  96.3733 263.7418 15.08860922 41673,6917.816,95.436,540.645,538.718,0.0
53432.0,STARLINK-4557,PAYLOAD,2023-05-08 03:24:04,15.08841595,9.68e-05,53.2159,77.123,90.0198,270.0905,0.00013868,1.92e-05,0.0,0 STARLINK-4557,1 53432U 22097AW  23128.14171525  .00001920  00000-0  13868-3 0  9990,2 53432  53.2159  77.1230 0000968  90.0198 270.0905 15.08841595 41828,6917.876,95.437,540.41,539.071,0.0
53432.0,STARLINK-4557,PAYLOAD,2023-05-09 03:14:51,15.08846751,0.0001029,53.2159,72.6646,96.0717,264.0392,0.00035703,5.4e-05,0.0,0 STARLINK-4557,1 53432U 22097AW  23129.13531587  .00005400  00000-0  35703-3 0  9997,2 53432  53.2159  72.6646 0001029  96.0717 264.0392 15.08846751 42453,6917.86,95.437,540.437,539.013,0.0
53432.0,STARLINK-4557,PAYLOAD,2023-05-10 04:41:01,15.08842022,0.0001003,53.2168,67.9076,95.3067,264.804,0.00020915,3.043e-05,0.0,0 STARLINK-4557,1 53432U 22097AW  23130.19516013  .00003043  00000-0  20915-3 0  9992,2 53432  53.2168  67.9076 0001003  95.3067 264.8040 15.08842022 42612,6917.874,95.437,540.433,539.045,0.0
53432.0,STARLINK-4557,PAYLOAD,2023-05-11 02:56:25,15.0884701,0.0001081,53.2166,63.745,93.4711,266.6404,0.00021085,3.07e-05,0.0,0 STARLINK-4557,1 53432U 22097AW  23131.12251918  .00003070  00000-0  21085-3 0  9995,2 53432  53.2166  63.7450 0001081  93.4711 266.6404 15.08847010 42752,6917.859,95.437,540.472,538.976,0.0
53432.0,STARLINK-4557,PAYLOAD,2023-05-11 23:36:27,15.08835974,0.0001138,53.2167,59.8785,83.0159,277.0962,4.5177e-05,4.31e-06,0.0,0 STARLINK-4557,1 53432U 22097AW  23131.98364615  .00000431  00000-0  45177-4 0  9995,2 53432  53.2167  59.8785 0001138  83.0159 277.0962 15.08835974 42407,6917.893,95.438,540.545,538.97,0.0
53432.0,STARLINK-4557,PAYLOAD,2023-05-12 02:47:13,15.08836835,0.0001062,53.2169,59.2834,84.3376,275.7738,4.6012e-05,4.45e-06,0.0,0 STARLINK-4557,1 53432U 22097AW  23132.11612670  .00000445  00000-0  46012-4 0  9992,2 53432  53.2169  59.2834 0001062  84.3376 275.7738 15.08836835 42907,6917.89,95.438,540.49,539.02,0.0
53432.0,STARLINK-4557,PAYLOAD,2023-05-13 04:13:22,15.08860798,0.0001123,53.2163,54.5244,88.8629,271.2492,0.00059354,9.176e-05,0.0,0 STARLINK-4557,1 53432U 22097AW  23133.17595764  .00009176  00000-0  59354-3 0  9995,2 53432  53.2163  54.5244 0001123  88.8629 271.2492 15.08860798 42589,6917.817,95.436,540.459,538.905,0.0
53432.0,STARLINK-4557,PAYLOAD,2023-05-14 04:04:10,15.08850804,0.0001185,53.2162,50.0648,89.1846,270.9282,0.00039989,6.084e-05,0.0,0 STARLINK-4557,1 53432U 22097AW  23134.16956255  .00006084  00000-0  39989-3 0  9998,2 53432  53.2162  50.0648 0001185  89.1846 270.9282 15.08850804 42737,6917.847,95.437,540.532,538.893,0.0
53432.0,STARLINK-4557,PAYLOAD,2023-05-14 21:33:25,15.08836233,0.0001361,53.2163,46.7941,92.303,267.8118,0.00019687,2.846e-05,0.0,0 STARLINK-4557,1 53432U 22097AW  23134.89820778  .00002846  00000-0  19687-3 0  9993,2 53432  53.2163  46.7941 0001361  92.3030 267.8118 15.08836233 43322,6917.892,95.438,540.698,538.815,0.0
53432.0,STARLINK-4557,PAYLOAD,2023-05-15 00:44:11,15.08843779,0.0001255,53.2167,46.1994,89.7852,270.3284,9.18e-05,1.174e-05,0.0,0 STARLINK-4557,1 53432U 22097AW  23135.03068480  .00001174  00000-0  91800-4 0  9995,2 53432  53.2167  46.1994 0001255  89.7852 270.3284 15.08843779 42866,6917.869,95.437,540.602,538.866,0.0
53432.0,STARLINK-4557,PAYLOAD,2023-05-15 03:54:57,15.08846093,0.0001267,53.2171,45.6019,90.1212,269.9925,0.00014783,2.066e-05,0.0,0 STARLINK-4557,1 53432U 22097AW  23135.16316140  .00002066  00000-0  14783-3 0  9993,2 53432  53.2171  45.6019 0001267  90.1212 269.9925 15.08846093 43366,6917.862,95.437,540.603,538.85,0.0
53432.0,STARLINK-4557,PAYLOAD,2023-05-16 00:34:58,15.08840917,0.0001329,53.2176,41.7346,95.3273,264.7871,0.00013854,1.918e-05,0.0,0 STARLINK-4557,1 53432U 22097AW  23136.02428742  .00001918  00000-0  13854-3 0  9994,2 53432  53.2176  41.7346 0001329  95.3273 264.7871 15.08840917 43018,6917.878,95.437,540.662,538.823,0.0
53432.0,STARLINK-4557,PAYLOAD,2023-05-16 18:04:13,15.0883953,0.000132,53.2171,38.4639,92.999,267.1153,5.3411e-05,5.62e-06,0.0,0 STARLINK-4557,1 53432U 22097AW  23136.75292840  .00000562  00000-0  53411-4 0  9990,2 53432  53.2171  38.4639 0001320  92.9990 267.1153 15.08839530 43605,6917.882,95.438,540.66,538.834,0.0
53432.0,STARLINK-4557,PAYLOAD,2023-05-16 22:50:22,15.08839839,0.0001312,53.2173,37.5719,93.1708,266.9435,5.4552e-05,5.8e-06,0.0,0 STARLINK-4557,1 53432U 22097AW  23136.95164845  .00000580  00000-0  54552-4 0  9992,2 53432  53.2173  37.5719 0001312  93.1708 266.9435 15.08839839 43159,6917.881,95.438,540.654,538.838,0.0
53432.0,STARLINK-4557,PAYLOAD,2023-05-17 21:05:46,15.08836196,0.0001173,53.2165,33.4134,94.946,265.1666,5.0585e-05,5.17e-06,0.0,0 STARLINK-4557,1 53432U 22097AW  23137.87901131  .00000517  00000-0  50585-4 0  9993,2 53432  53.2165  33.4134 0001173  94.9460 265.1666 15.08836196 43773,6917.892,95.438,540.568,538.946,0.0
53432.0,STARLINK-4557,PAYLOAD,2023-05-18 01:51:56,15.08831547,0.0001181,53.2167,32.521,97.1374,262.9752,0.00043645,6.663e-05,0.0,0 STARLINK-4557,1 53432U 22097AW  23138.07773390  .00006663  00000-0  43645-3 0  9996,2 53432  53.2167  32.5210 0001181  97.1374 262.9752 15.08831547 43325,6917.906,95.438,540.588,538.954,0.0
53432.0,STARLINK-4557,PAYLOAD,2023-05-18 19:21:10,15.08837432,0.0001111,53.2167,29.25,92.9124,267.1996,1.5021e-05,-4.9e-07,0.0,0 STARLINK-4557,1 53432U 22097AW  23138.80637160 -.00000049  00000-0  15021-4 0  9992,2 53432  53.2167  29.2500 0001111  92.9124 267.1996 15.08837432 43910,6917.888,95.438,540.522,538.985,0.0
53432.0,STARLINK-4557,PAYLOAD,2023-05-19 22:22:43,15.08844078,0.0001081,53.2173,24.1941,92.2405,267.8711,8.4079e-05,1.051e-05,0.0,0 STARLINK-4557,1 53432U 22097AW  23139.93245055  .00001051  00000-0  84079-4 0  9997,2 53432  53.2173  24.1941 0001081  92.2405 267.8711 15.08844078 44086,6917.868,95.437,540.481,538.985,0.0
